[{"OBJECT_NAME":"STARLINK-3558","OBJECT_ID":"2022-029AH","EPOCH":"2025-12-31T07:01:01.167168","MEAN_MOTION":15.08834797,"ECCENTRICITY":0.00014028,"INCLINATION":53.2194,"RA_OF_ASC_NODE":26.1678,"ARG_OF_PERICENTER":106.8694,"MEAN_ANOMALY":253.2452,"EPHEMERIS_TYPE":0,"CLASSIFICATION_TYPE":"U","NORAD_CAT_ID":52119,"ELEMENT_SET_NO":999,"REV_AT_EPOCH":21046,"BSTAR":8.0175989e-5,"MEAN_MOTION_DOT":9.88e-6,"MEAN_MOTION_DDOT":0},{"OBJECT_NAME":"STARLINK-3534","OBJECT_ID":"2022-029AJ","EPOCH":"2025-12-31T07:16:55.240032","MEAN_MOTION":15.08837876,"ECCENTRICITY":0.00016814,"INCLINATION":53.2216,"RA_OF_ASC_NODE":26.1236,"ARG_OF_PERICENTER":100.1797,"MEAN_ANOMALY":259.9385,"EPHEMERIS_TYPE":0,"CLASSIFICATION_TYPE":"U","NORAD_CAT_ID":52120,"ELEMENT_SET_NO":999,"REV_AT_EPOCH":21047,"BSTAR":3.131936e-6,"MEAN_MOTION_DOT":-2.38e-6,"MEAN_MOTION_DDOT":0},{"OBJECT_NAME":"STARLINK-3678","OBJECT_ID":"2022-029AK","EPOCH":"2025-12-31T06:35:51.055008","MEAN_MOTION":15.0883504,"ECCENTRICITY":0.00017792,"INCLINATION":53.2207,"RA_OF_ASC_NODE":16.2496,"ARG_OF_PERICENTER":122.2173,"MEAN_ANOMALY":237.8992,"EPHEMERIS_TYPE":0,"CLASSIFICATION_TYPE":"U","NORAD_CAT_ID":52121,"ELEMENT_SET_NO":999,"REV_AT_EPOCH":21059,"BSTAR":8.1060148e-5,"MEAN_MOTION_DOT":1.002e-5,"MEAN_MOTION_DDOT":0},{"OBJECT_NAME":"STARLINK-3726","OBJECT_ID":"2022-029AL","EPOCH":"2025-12-31T07:06:19.402560","MEAN_MOTION":15.08831519,"ECCENTRICITY":0.00012239,"INCLINATION":53.2186,"RA_OF_ASC_NODE":26.1495,"ARG_OF_PERICENTER":84.3201,"MEAN_ANOMALY":275.7931,"EPHEMERIS_TYPE":0,"CLASSIFICATION_TYPE":"U","NORAD_CAT_ID":52122,"ELEMENT_SET_NO":999,"REV_AT_EPOCH":21046,"BSTAR":4.169761e-5,"MEAN_MOTION_DOT":3.76e-6,"MEAN_MOTION_DDOT":0},{"OBJECT_NAME":"STARLINK-3725","OBJECT_ID":"2022-029AM","EPOCH":"2025-12-31T07:35:29.245344","MEAN_MOTION":15.08838321,"ECCENTRICITY":0.00015639,"INCLINATION":53.2177,"RA_OF_ASC_NODE":15.8808,"ARG_OF_PERICENTER":93.9961,"MEAN_ANOMALY":266.121,"EPHEMERIS_TYPE":0,"CLASSIFICATION_TYPE":"U","NORAD_CAT_ID":52123,"ELEMENT_SET_NO":999,"REV_AT_EPOCH":21061,"BSTAR":6.4396084e-5,"MEAN_MOTION_DOT":7.37e-6,"MEAN_MOTION_DDOT":0},{"OBJECT_NAME":"STARLINK-3727","OBJECT_ID":"2022-029AP","EPOCH":"2025-12-31T06:19:57.151488","MEAN_MOTION":15.0883195,"ECCENTRICITY":0.0001339,"INCLINATION":53.22,"RA_OF_ASC_NODE":16.2985,"ARG_OF_PERICENTER":88.1392,"MEAN_ANOMALY":271.9754,"EPHEMERIS_TYPE":0,"CLASSIFICATION_TYPE":"U","NORAD_CAT_ID":52125,"ELEMENT_SET_NO":999,"REV_AT_EPOCH":21060,"BSTAR":6.2634416e-5,"MEAN_MOTION_DOT":7.09e-6,"MEAN_MOTION_DDOT":0},{"OBJECT_NAME":"STARLINK-3732","OBJECT_ID":"2022-029AQ","EPOCH":"2025-12-31T06:30:32.985504","MEAN_MOTION":15.08836912,"ECCENTRICITY":0.00012144,"INCLINATION":53.2186,"RA_OF_ASC_NODE":16.2633,"ARG_OF_PERICENTER":89.9185,"MEAN_ANOMALY":270.1947,"EPHEMERIS_TYPE":0,"CLASSIFICATION_TYPE":"U","NORAD_CAT_ID":52126,"ELEMENT_SET_NO":999,"REV_AT_EPOCH":21059,"BSTAR":8.0061412e-5,"MEAN_MOTION_DOT":9.86e-6,"MEAN_MOTION_DDOT":0},{"OBJECT_NAME":"STARLINK-3715","OBJECT_ID":"2022-029AR","EPOCH":"2025-12-31T07:50:02.315616","MEAN_MOTION":15.08842569,"ECCENTRICITY":0.00016201,"INCLINATION":53.2184,"RA_OF_ASC_NODE":16.017,"ARG_OF_PERICENTER":91.9375,"MEAN_ANOMALY":268.1803,"EPHEMERIS_TYPE":0,"CLASSIFICATION_TYPE":"U","NORAD_CAT_ID":52127,"ELEMENT_SET_NO":999,"REV_AT_EPOCH":21060,"BSTAR":-0.00010606149,"MEAN_MOTION_DOT":-1.976e-5,"MEAN_MOTION_DDOT":0},{"OBJECT_NAME":"STARLINK-3661","OBJECT_ID":"2022-029AT","EPOCH":"2025-12-31T07:39:26.594784","MEAN_MOTION":15.08833818,"ECCENTRICITY":0.0001352,"INCLINATION":53.2172,"RA_OF_ASC_NODE":16.0483,"ARG_OF_PERICENTER":85.718,"MEAN_ANOMALY":274.3966,"EPHEMERIS_TYPE":0,"CLASSIFICATION_TYPE":"U","NORAD_CAT_ID":52129,"ELEMENT_SET_NO":999,"REV_AT_EPOCH":21061,"BSTAR":0.00014844049,"MEAN_MOTION_DOT":2.075e-5,"MEAN_MOTION_DDOT":0},{"OBJECT_NAME":"STARLINK-3711","OBJECT_ID":"2022-029AV","EPOCH":"2025-12-31T07:17:17.403360","MEAN_MOTION":15.10144121,"ECCENTRICITY":0.00039633,"INCLINATION":53.2178,"RA_OF_ASC_NODE":15.9942,"ARG_OF_PERICENTER":46.7508,"MEAN_ANOMALY":313.3815,"EPHEMERIS_TYPE":0,"CLASSIFICATION_TYPE":"U","NORAD_CAT_ID":52131,"ELEMENT_SET_NO":999,"REV_AT_EPOCH":21061,"BSTAR":0.0023662717,"MEAN_MOTION_DOT":0.00038961,"MEAN_MOTION_DDOT":0},{"OBJECT_NAME":"STARLINK-3718","OBJECT_ID":"2022-029AW","EPOCH":"2025-12-31T07:44:44.117376","MEAN_MOTION":15.08847142,"ECCENTRICITY":0.0001597,"INCLINATION":53.2189,"RA_OF_ASC_NODE":16.0318,"ARG_OF_PERICENTER":89.2305,"MEAN_ANOMALY":270.887,"EPHEMERIS_TYPE":0,"CLASSIFICATION_TYPE":"U","NORAD_CAT_ID":52132,"ELEMENT_SET_NO":999,"REV_AT_EPOCH":21061,"BSTAR":0.00015442439,"MEAN_MOTION_DOT":2.171e-5,"MEAN_MOTION_DDOT":0},{"OBJECT_NAME":"STARLINK-3707","OBJECT_ID":"2022-029AX","EPOCH":"2025-12-31T07:23:31.903296","MEAN_MOTION":15.08849226,"ECCENTRICITY":0.00014262,"INCLINATION":53.2164,"RA_OF_ASC_NODE":16.0964,"ARG_OF_PERICENTER":84.6714,"MEAN_ANOMALY":275.4441,"EPHEMERIS_TYPE":0,"CLASSIFICATION_TYPE":"U","NORAD_CAT_ID":52133,"ELEMENT_SET_NO":999,"REV_AT_EPOCH":21061,"BSTAR":-1.3056712e-5,"MEAN_MOTION_DOT":-4.96e-6,"MEAN_MOTION_DDOT":0},{"OBJECT_NAME":"STARLINK-3721","OBJECT_ID":"2022-029AY","EPOCH":"2025-12-31T07:28:51.245472","MEAN_MOTION":15.08834892,"ECCENTRICITY":0.00015309,"INCLINATION":53.2198,"RA_OF_ASC_NODE":16.0792,"ARG_OF_PERICENTER":96.9553,"MEAN_ANOMALY":263.1613,"EPHEMERIS_TYPE":0,"CLASSIFICATION_TYPE":"U","NORAD_CAT_ID":52134,"ELEMENT_SET_NO":999,"REV_AT_EPOCH":21061,"BSTAR":8.3647029e-5,"MEAN_MOTION_DOT":1.043e-5,"MEAN_MOTION_DDOT":0},{"OBJECT_NAME":"STARLINK-3729","OBJECT_ID":"2022-029AZ","EPOCH":"2025-12-31T07:09:01.574496","MEAN_MOTION":15.08841834,"ECCENTRICITY":0.00012057,"INCLINATION":53.2184,"RA_OF_ASC_NODE":16.1538,"ARG_OF_PERICENTER":101.9064,"MEAN_ANOMALY":258.2063,"EPHEMERIS_TYPE":0,"CLASSIFICATION_TYPE":"U","NORAD_CAT_ID":52135,"ELEMENT_SET_NO":999,"REV_AT_EPOCH":21061,"BSTAR":0.00053442353,"MEAN_MOTION_DOT":8.228e-5,"MEAN_MOTION_DDOT":0},{"OBJECT_NAME":"STARLINK-3720","OBJECT_ID":"2022-029BA","EPOCH":"2025-12-31T07:18:11.621952","MEAN_MOTION":15.08873595,"ECCENTRICITY":0.0001431,"INCLINATION":53.2179,"RA_OF_ASC_NODE":16.1134,"ARG_OF_PERICENTER":90.2129,"MEAN_ANOMALY":269.9027,"EPHEMERIS_TYPE":0,"CLASSIFICATION_TYPE":"U","NORAD_CAT_ID":52136,"ELEMENT_SET_NO":999,"REV_AT_EPOCH":21061,"BSTAR":0.0003490588,"MEAN_MOTION_DOT":5.277e-5,"MEAN_MOTION_DDOT":0},{"OBJECT_NAME":"STARLINK-3733","OBJECT_ID":"2022-029BB","EPOCH":"2025-12-31T07:02:20.368320","MEAN_MOTION":15.08845272,"ECCENTRICITY":0.00015268,"INCLINATION":53.2197,"RA_OF_ASC_NODE":16.1622,"ARG_OF_PERICENTER":83.7843,"MEAN_ANOMALY":276.3323,"EPHEMERIS_TYPE":0,"CLASSIFICATION_TYPE":"U","NORAD_CAT_ID":52137,"ELEMENT_SET_NO":999,"REV_AT_EPOCH":21061,"BSTAR":0.0001031406,"MEAN_MOTION_DOT":1.354e-5,"MEAN_MOTION_DDOT":0},{"OBJECT_NAME":"STARLINK-3723","OBJECT_ID":"2022-029BC","EPOCH":"2025-12-31T07:12:56.200608","MEAN_MOTION":15.08848072,"ECCENTRICITY":0.00016069,"INCLINATION":53.2193,"RA_OF_ASC_NODE":16.1304,"ARG_OF_PERICENTER":84.9818,"MEAN_ANOMALY":275.1357,"EPHEMERIS_TYPE":0,"CLASSIFICATION_TYPE":"U","NORAD_CAT_ID":52138,"ELEMENT_SET_NO":999,"REV_AT_EPOCH":21061,"BSTAR":9.3233606e-5,"MEAN_MOTION_DOT":1.196e-5,"MEAN_MOTION_DDOT":0},{"OBJECT_NAME":"STARLINK-3730","OBJECT_ID":"2022-029BD","EPOCH":"2025-12-31T06:45:07.379424","MEAN_MOTION":15.08836458,"ECCENTRICITY":0.00015273,"INCLINATION":53.2191,"RA_OF_ASC_NODE":26.2145,"ARG_OF_PERICENTER":100.0125,"MEAN_ANOMALY":260.104,"EPHEMERIS_TYPE":0,"CLASSIFICATION_TYPE":"U","NORAD_CAT_ID":52139,"ELEMENT_SET_NO":999,"REV_AT_EPOCH":21046,"BSTAR":4.585721e-5,"MEAN_MOTION_DOT":4.42e-6,"MEAN_MOTION_DDOT":0},{"OBJECT_NAME":"STARLINK-3682","OBJECT_ID":"2022-029BE","EPOCH":"2025-12-31T06:57:03.245760","MEAN_MOTION":15.08835068,"ECCENTRICITY":0.00015652,"INCLINATION":53.2191,"RA_OF_ASC_NODE":16.1798,"ARG_OF_PERICENTER":88.438,"MEAN_ANOMALY":271.6791,"EPHEMERIS_TYPE":0,"CLASSIFICATION_TYPE":"U","NORAD_CAT_ID":52140,"ELEMENT_SET_NO":999,"REV_AT_EPOCH":21061,"BSTAR":7.5470166e-5,"MEAN_MOTION_DOT":9.13e-6,"MEAN_MOTION_DDOT":0},{"OBJECT_NAME":"STARLINK-3761","OBJECT_ID":"2022-041B","EPOCH":"2025-12-31T06:51:43.438752","MEAN_MOTION":15.08885966,"ECCENTRICITY":9.434e-5,"INCLINATION":53.2189,"RA_OF_ASC_NODE":56.1504,"ARG_OF_PERICENTER":91.99,"MEAN_ANOMALY":268.12,"EPHEMERIS_TYPE":0,"CLASSIFICATION_TYPE":"U","NORAD_CAT_ID":52262,"ELEMENT_SET_NO":999,"REV_AT_EPOCH":20403,"BSTAR":-0.00056116629,"MEAN_MOTION_DOT":-9.219e-5,"MEAN_MOTION_DDOT":0},{"OBJECT_NAME":"STARLINK-3786","OBJECT_ID":"2022-041C","EPOCH":"2025-12-31T06:57:02.683296","MEAN_MOTION":15.08836535,"ECCENTRICITY":0.0001525,"INCLINATION":53.2205,"RA_OF_ASC_NODE":56.1826,"ARG_OF_PERICENTER":94.5493,"MEAN_ANOMALY":265.5674,"EPHEMERIS_TYPE":0,"CLASSIFICATION_TYPE":"U","NORAD_CAT_ID":52263,"ELEMENT_SET_NO":999,"REV_AT_EPOCH":20403,"BSTAR":5.0972004e-5,"MEAN_MOTION_DOT":5.23e-6,"MEAN_MOTION_DDOT":0},{"OBJECT_NAME":"STARLINK-3795","OBJECT_ID":"2022-041D","EPOCH":"2025-12-31T03:35:40.566048","MEAN_MOTION":15.08839628,"ECCENTRICITY":0.00012781,"INCLINATION":53.2191,"RA_OF_ASC_NODE":56.8091,"ARG_OF_PERICENTER":90.2821,"MEAN_ANOMALY":269.8317,"EPHEMERIS_TYPE":0,"CLASSIFICATION_TYPE":"U","NORAD_CAT_ID":52264,"ELEMENT_SET_NO":999,"REV_AT_EPOCH":20401,"BSTAR":-3.81806e-6,"MEAN_MOTION_DOT":-3.49e-6,"MEAN_MOTION_DDOT":0},{"OBJECT_NAME":"STARLINK-3740","OBJECT_ID":"2022-041E","EPOCH":"2025-12-31T03:30:22.766976","MEAN_MOTION":15.08836519,"ECCENTRICITY":0.000136,"INCLINATION":53.2201,"RA_OF_ASC_NODE":56.8241,"ARG_OF_PERICENTER":92.3694,"MEAN_ANOMALY":267.7454,"EPHEMERIS_TYPE":0,"CLASSIFICATION_TYPE":"U","NORAD_CAT_ID":52265,"ELEMENT_SET_NO":999,"REV_AT_EPOCH":20401,"BSTAR":-4.613029e-6,"MEAN_MOTION_DOT":-3.61e-6,"MEAN_MOTION_DDOT":0}]
